start=new Date('2021-09-30T00:00:00.000Z').valueOf();
sats=[{"ECCENTRICITY":"0.00011850","INCLINATION":"53.0567","GP_ID":"185791117","TIME_SYSTEM":"UTC","REV_AT_EPOCH":"9197","OBJECT_TYPE":"PAYLOAD","MEAN_MOTION":"15.06400722","EPHEMERIS_TYPE":"0","MEAN_MOTION_DDOT":"0.0000000000000","ELEMENT_SET_NO":"999","BSTAR":"0.00002461400000","ARG_OF_PERICENTER":"90.4556","CLASSIFICATION_TYPE":"U","RCS_SIZE":"LARGE","COUNTRY_CODE":"US","OBJECT_ID":"2020-006Q","MEAN_ANOMALY":"269.6568","NORAD_CAT_ID":"45058","LAUNCH_DATE":"2020-01-29","PERIOD":"95.592","MEAN_MOTION_DOT":"0.00000085","REF_FRAME":"TEME","FILE":"3134986","OBJECT_NAME":"STARLINK-1162","MEAN_ELEMENT_THEORY":"SGP4","TLE_LINE1":"1 45058U 20006Q   21272.55807646  .00000085  00000-0  24614-4 0  9999","TLE_LINE2":"2 45058  53.0567   8.6603 0001185  90.4556 269.6568 15.06400722 91972","EPOCH":"2021-09-29T13:23:37.806144","SITE":"AFETR","APOAPSIS":"548.032","CENTER_NAME":"EARTH","DECAY_DATE":null,"SEMIMAJOR_AXIS":"6925.346","PERIAPSIS":"546.391","RA_OF_ASC_NODE":"8.6603"},{"EPHEMERIS_TYPE":"0","BSTAR":"0.00001805900000","MEAN_MOTION_DDOT":"0.0000000000000","ELEMENT_SET_NO":"999","ARG_OF_PERICENTER":"82.8476","CLASSIFICATION_TYPE":"U","RCS_SIZE":"LARGE","COUNTRY_CODE":"US","MEAN_ANOMALY":"277.2651","NORAD_CAT_ID":"45059","OBJECT_ID":"2020-006R","PERIOD":"95.592","LAUNCH_DATE":"2020-01-29","ECCENTRICITY":"0.00012210","INCLINATION":"53.0556","GP_ID":"185789865","TIME_SYSTEM":"UTC","REV_AT_EPOCH":"9196","MEAN_MOTION":"15.06399670","OBJECT_TYPE":"PAYLOAD","TLE_LINE2":"2 45059  53.0556   8.8515 0001221  82.8476 277.2651 15.06399670 91968","APOAPSIS":"548.060","SITE":"AFETR","EPOCH":"2021-09-29T12:19:56.497440","CENTER_NAME":"EARTH","DECAY_DATE":null,"SEMIMAJOR_AXIS":"6925.350","PERIAPSIS":"546.369","RA_OF_ASC_NODE":"8.8515","MEAN_MOTION_DOT":"-0.00000012","REF_FRAME":"TEME","FILE":"3134986","MEAN_ELEMENT_THEORY":"SGP4","OBJECT_NAME":"STARLINK-1165","TLE_LINE1":"1 45059U 20006R   21272.51384835 -.00000012  00000-0  18059-4 0  9993"},{"LAUNCH_DATE":"2020-01-29","PERIOD":"95.593","OBJECT_ID":"2020-006S","NORAD_CAT_ID":"45060","MEAN_ANOMALY":"254.8808","COUNTRY_CODE":"US","RCS_SIZE":"LARGE","CLASSIFICATION_TYPE":"U","ARG_OF_PERICENTER":"105.2299","ELEMENT_SET_NO":"999","MEAN_MOTION_DDOT":"0.0000000000000","BSTAR":"0.00003492600000","EPHEMERIS_TYPE":"0","OBJECT_TYPE":"PAYLOAD","MEAN_MOTION":"15.06391742","REV_AT_EPOCH":"9197","TIME_SYSTEM":"UTC","GP_ID":"185789616","INCLINATION":"53.0566","ECCENTRICITY":"0.00010660","RA_OF_ASC_NODE":"8.5802","DECAY_DATE":null,"SEMIMAJOR_AXIS":"6925.374","PERIAPSIS":"546.501","CENTER_NAME":"EARTH","EPOCH":"2021-09-29T13:50:10.418208","SITE":"AFETR","APOAPSIS":"547.977","TLE_LINE2":"2 45060  53.0566   8.5802 0001066 105.2299 254.8808 15.06391742 91975","TLE_LINE1":"1 45060U 20006S   21272.57650947  .00000239  00000-0  34926-4 0  9992","FILE":"3134986","OBJECT_NAME":"STARLINK-1166","MEAN_ELEMENT_THEORY":"SGP4","REF_FRAME":"TEME","MEAN_MOTION_DOT":"0.00000239"},{"RA_OF_ASC_NODE":"8.8405","DECAY_DATE":null,"PERIAPSIS":"546.502","SEMIMAJOR_AXIS":"6925.382","CENTER_NAME":"EARTH","APOAPSIS":"547.993","EPOCH":"2021-09-29T12:25:15.302208","SITE":"AFETR","TLE_LINE2":"2 45061  53.0567   8.8405 0001076 106.2088 253.9019 15.06388980 91960","TLE_LINE1":"1 45061U 20006T   21272.51753822  .00000077  00000-0  24030-4 0  9998","FILE":"3134986","MEAN_ELEMENT_THEORY":"SGP4","OBJECT_NAME":"STARLINK-1169","REF_FRAME":"TEME","MEAN_MOTION_DOT":"0.00000077","PERIOD":"95.593","LAUNCH_DATE":"2020-01-29","NORAD_CAT_ID":"45061","MEAN_ANOMALY":"253.9019","OBJECT_ID":"2020-006T","COUNTRY_CODE":"US","RCS_SIZE":"LARGE","CLASSIFICATION_TYPE":"U","ARG_OF_PERICENTER":"106.2088","BSTAR":"0.00002403000000","MEAN_MOTION_DDOT":"0.0000000000000","ELEMENT_SET_NO":"999","EPHEMERIS_TYPE":"0","MEAN_MOTION":"15.06388980","OBJECT_TYPE":"PAYLOAD","TIME_SYSTEM":"UTC","REV_AT_EPOCH":"9196","GP_ID":"185790867","INCLINATION":"53.0567","ECCENTRICITY":"0.00010760"},{"RA_OF_ASC_NODE":"8.5995","SEMIMAJOR_AXIS":"6925.381","DECAY_DATE":null,"PERIAPSIS":"546.487","TLE_LINE2":"2 45062  53.0561   8.5995 0001096 101.8489 258.2623 15.06389370 91978","CENTER_NAME":"EARTH","APOAPSIS":"548.005","EPOCH":"2021-09-29T13:39:33.789312","SITE":"AFETR","REF_FRAME":"TEME","TLE_LINE1":"1 45062U 20006U   21272.56914108  .00000083  00000-0  24491-4 0  9998","OBJECT_NAME":"STARLINK-1171","FILE":"3134986","MEAN_ELEMENT_THEORY":"SGP4","MEAN_MOTION_DOT":"0.00000083","COUNTRY_CODE":"US","RCS_SIZE":"LARGE","PERIOD":"95.593","LAUNCH_DATE":"2020-01-29","MEAN_ANOMALY":"258.2623","NORAD_CAT_ID":"45062","OBJECT_ID":"2020-006U","BSTAR":"0.00002449100000","ELEMENT_SET_NO":"999","MEAN_MOTION_DDOT":"0.0000000000000","EPHEMERIS_TYPE":"0","CLASSIFICATION_TYPE":"U","ARG_OF_PERICENTER":"101.8489","TIME_SYSTEM":"UTC","REV_AT_EPOCH":"9197","GP_ID":"185790618","MEAN_MOTION":"15.06389370","OBJECT_TYPE":"PAYLOAD","ECCENTRICITY":"0.00010960","INCLINATION":"53.0561"},{"OBJECT_TYPE":"PAYLOAD","MEAN_MOTION":"15.78311810","GP_ID":"185789366","TIME_SYSTEM":"UTC","REV_AT_EPOCH":"9222","INCLINATION":"53.0593","ECCENTRICITY":"0.00078070","OBJECT_ID":"2020-006V","NORAD_CAT_ID":"45063","MEAN_ANOMALY":"86.4235","LAUNCH_DATE":"2020-01-29","PERIOD":"91.237","RCS_SIZE":"LARGE","COUNTRY_CODE":"US","ARG_OF_PERICENTER":"273.5893","CLASSIFICATION_TYPE":"U","EPHEMERIS_TYPE":"0","MEAN_MOTION_DDOT":"0.0000000000000","ELEMENT_SET_NO":"999","BSTAR":"0.00215020000000","OBJECT_NAME":"STARLINK-1178","FILE":"3134986","MEAN_ELEMENT_THEORY":"SGP4","TLE_LINE1":"1 45063U 20006V   21272.50830144  .00395474  00000-0  21502-2 0  9999","REF_FRAME":"TEME","MEAN_MOTION_DOT":"0.00395474","DECAY_DATE":null,"PERIAPSIS":"329.984","SEMIMAJOR_AXIS":"6713.361","RA_OF_ASC_NODE":"350.2872","SITE":"AFETR","EPOCH":"2021-09-29T12:11:57.244416","APOAPSIS":"340.467","CENTER_NAME":"EARTH","TLE_LINE2":"2 45063  53.0593 350.2872 0007807 273.5893  86.4235 15.78311810 92229"},{"BSTAR":"0.00001093000000","ELEMENT_SET_NO":"999","MEAN_MOTION_DDOT":"0.0000000000000","EPHEMERIS_TYPE":"0","CLASSIFICATION_TYPE":"U","ARG_OF_PERICENTER":"99.1557","COUNTRY_CODE":"US","RCS_SIZE":"LARGE","PERIOD":"95.593","LAUNCH_DATE":"2020-01-29","NORAD_CAT_ID":"45064","MEAN_ANOMALY":"260.9574","OBJECT_ID":"2020-006W","ECCENTRICITY":"0.00012550","INCLINATION":"53.0552","TIME_SYSTEM":"UTC","REV_AT_EPOCH":"9224","GP_ID":"185790116","MEAN_MOTION":"15.06387937","OBJECT_TYPE":"PAYLOAD","TLE_LINE2":"2 45064  53.0552 348.8408 0001255  99.1557 260.9574 15.06387937 92244","CENTER_NAME":"EARTH","APOAPSIS":"548.120","SITE":"AFETR","EPOCH":"2021-09-29T12:22:35.748192","RA_OF_ASC_NODE":"348.8408","SEMIMAJOR_AXIS":"6925.386","DECAY_DATE":null,"PERIAPSIS":"546.381","MEAN_MOTION_DOT":"-0.00000119","REF_FRAME":"TEME","TLE_LINE1":"1 45064U 20006W   21272.51569153 -.00000119  00000-0  10930-4 0  9995","OBJECT_NAME":"STARLINK-1133","FILE":"3134986","MEAN_ELEMENT_THEORY":"SGP4"},{"OBJECT_TYPE":"PAYLOAD","MEAN_MOTION":"15.06406105","TIME_SYSTEM":"UTC","REV_AT_EPOCH":"9224","GP_ID":"185790368","INCLINATION":"53.0565","ECCENTRICITY":"0.00012100","LAUNCH_DATE":"2020-01-29","PERIOD":"95.592","OBJECT_ID":"2020-006X","NORAD_CAT_ID":"45065","MEAN_ANOMALY":"259.2197","COUNTRY_CODE":"US","RCS_SIZE":"LARGE","CLASSIFICATION_TYPE":"U","ARG_OF_PERICENTER":"100.8929","MEAN_MOTION_DDOT":"0.0000000000000","ELEMENT_SET_NO":"999","BSTAR":"-0.00004820400000","EPHEMERIS_TYPE":"0","TLE_LINE1":"1 45065U 20006X   21272.51936231 -.00000999  00000-0 -48204-4 0  9993","FILE":"3134986","OBJECT_NAME":"STARLINK-1139","MEAN_ELEMENT_THEORY":"SGP4","REF_FRAME":"TEME","MEAN_MOTION_DOT":"-0.00000999","RA_OF_ASC_NODE":"348.8361","SEMIMAJOR_AXIS":"6925.330","DECAY_DATE":null,"PERIAPSIS":"546.357","CENTER_NAME":"EARTH","SITE":"AFETR","EPOCH":"2021-09-29T12:27:52.903584","APOAPSIS":"548.033","TLE_LINE2":"2 45065  53.0565 348.8361 0001210 100.8929 259.2197 15.06406105 92242"},{"TLE_LINE1":"1 45066U 20006Y   21272.36087900  .00000263  00000-0  36529-4 0  9996","FILE":"3134986","OBJECT_NAME":"STARLINK-1145","MEAN_ELEMENT_THEORY":"SGP4","REF_FRAME":"TEME","MEAN_MOTION_DOT":"0.00000263","RA_OF_ASC_NODE":"349.5439","PERIAPSIS":"546.499","DECAY_DATE":null,"SEMIMAJOR_AXIS":"6925.339","CENTER_NAME":"EARTH","APOAPSIS":"547.908","EPOCH":"2021-09-29T08:39:39.945600","SITE":"AFETR","TLE_LINE2":"2 45066  53.0565 349.5439 0001017 108.0515 252.0585 15.06403235 92213","MEAN_MOTION":"15.06403235","OBJECT_TYPE":"PAYLOAD","TIME_SYSTEM":"UTC","REV_AT_EPOCH":"9221","GP_ID":"185791118","INCLINATION":"53.0565","ECCENTRICITY":"0.00010170","PERIOD":"95.592","LAUNCH_DATE":"2020-01-29","NORAD_CAT_ID":"45066","MEAN_ANOMALY":"252.0585","OBJECT_ID":"2020-006Y","COUNTRY_CODE":"US","RCS_SIZE":"LARGE","CLASSIFICATION_TYPE":"U","ARG_OF_PERICENTER":"108.0515","BSTAR":"0.00003652900000","ELEMENT_SET_NO":"999","MEAN_MOTION_DDOT":"0.0000000000000","EPHEMERIS_TYPE":"0"},{"EPHEMERIS_TYPE":"0","ELEMENT_SET_NO":"999","MEAN_MOTION_DDOT":"0.0000000000000","BSTAR":"0.00000888350000","ARG_OF_PERICENTER":"83.1885","CLASSIFICATION_TYPE":"U","RCS_SIZE":"LARGE","COUNTRY_CODE":"US","OBJECT_ID":"2020-006Z","MEAN_ANOMALY":"276.9239","NORAD_CAT_ID":"45067","LAUNCH_DATE":"2020-01-29","PERIOD":"95.592","ECCENTRICITY":"0.00011820","INCLINATION":"53.0553","GP_ID":"185789866","TIME_SYSTEM":"UTC","REV_AT_EPOCH":"9224","OBJECT_TYPE":"PAYLOAD","MEAN_MOTION":"15.06402513","TLE_LINE2":"2 45067  53.0553 348.8754 0001182  83.1885 276.9239 15.06402513 92241","EPOCH":"2021-09-29T12:11:58.670016","SITE":"AFETR","APOAPSIS":"548.024","CENTER_NAME":"EARTH","SEMIMAJOR_AXIS":"6925.341","DECAY_DATE":null,"PERIAPSIS":"546.387","RA_OF_ASC_NODE":"348.8754","MEAN_MOTION_DOT":"-0.00000149","REF_FRAME":"TEME","FILE":"3134986","MEAN_ELEMENT_THEORY":"SGP4","OBJECT_NAME":"STARLINK-1150","TLE_LINE1":"1 45067U 20006Z   21272.50831794 -.00000149  00000-0  88835-5 0  9993"}];
